{
  "type": "FeatureCollection",
  "features": [
    {
      "type": "Feature",
      "properties": {
        "norad_id": 28899,
        "name": "INMARSAT 4-F2 (SOUTHPAN/PRN 122)",
        "group": "gnss",
        "lat": 3.8976323664425867,
        "lon": 96.75700785193136,
        "alt_km": 35799.11348984987,
        "timestamp": "2025-12-08T15:42:50.032450+00:00",
        "meta_object_name": "INMARSAT 4-F2 (SOUTHPAN/PRN 122)",
        "meta_object_id": "2005-044A",
        "meta_epoch": "2025-12-08T03:45:51.585120",
        "meta_mean_motion": 1.00271124,
        "meta_eccentricity": 0.00032954,
        "meta_inclination": 4.8467,
        "meta_ra_of_asc_node": 43.6777,
        "meta_arg_of_pericenter": 215.509,
        "meta_mean_anomaly": 17.949,
        "meta_ephemeris_type": 0,
        "meta_classification_type": "U",
        "meta_norad_cat_id": 28899,
        "meta_element_set_no": 999,
        "meta_rev_at_epoch": 7360,
        "meta_bstar": 0,
        "meta_mean_motion_dot": -2.6e-06,
        "meta_mean_motion_ddot": 0,
        "tle_line1": "1 28899U 05044A   25342.15684705 -.00000260  00000+0  00000+0 0  9998",
        "tle_line2": "2 28899   4.8467  43.6777 0003295 215.5090  17.9490  1.00271124 73606"
      },
      "geometry": {
        "type": "Point",
        "coordinates": [
          96.75700785193136,
          3.8976323664425867
        ]
      }
    },
    {
      "type": "Feature",
      "properties": {
        "norad_id": 29486,
        "name": "GPS BIIRM-2 (PRN 31)",
        "group": "gnss",
        "lat": 54.42089700626515,
        "lon": -118.79522386271567,
        "alt_km": 19938.43032741276,
        "timestamp": "2025-12-08T15:42:50.032469+00:00",
        "meta_object_name": "GPS BIIRM-2 (PRN 31)",
        "meta_object_id": "2006-042A",
        "meta_epoch": "2025-12-08T04:03:19.247328",
        "meta_mean_motion": 2.00554246,
        "meta_eccentricity": 0.01073661,
        "meta_inclination": 54.6935,
        "meta_ra_of_asc_node": 158.9221,
        "meta_arg_of_pericenter": 51.8493,
        "meta_mean_anomaly": 42.2543,
        "meta_ephemeris_type": 0,
        "meta_classification_type": "U",
        "meta_norad_cat_id": 29486,
        "meta_element_set_no": 999,
        "meta_rev_at_epoch": 14056,
        "meta_bstar": 0,
        "meta_mean_motion_dot": 5.8e-07,
        "meta_mean_motion_ddot": 0,
        "tle_line1": "1 29486U 06042A   25342.16897277  .00000058  00000+0  00000+0 0  9995",
        "tle_line2": "2 29486  54.6935 158.9221 0107366  51.8493  42.2543  2.00554246140568"
      },
      "geometry": {
        "type": "Point",
        "coordinates": [
          -118.79522386271567,
          54.42089700626515
        ]
      }
    },
    {
      "type": "Feature",
      "properties": {
        "norad_id": 29601,
        "name": "GPS BIIRM-3 (PRN 12)",
        "group": "gnss",
        "lat": 29.517262266349384,
        "lon": 18.188764627176404,
        "alt_km": 20045.041129296533,
        "timestamp": "2025-12-08T15:42:50.032483+00:00",
        "meta_object_name": "GPS BIIRM-3 (PRN 12)",
        "meta_object_id": "2006-052A",
        "meta_epoch": "2025-12-07T23:03:27.935136",
        "meta_mean_motion": 2.00573134,
        "meta_eccentricity": 0.00876554,
        "meta_inclination": 54.9714,
        "meta_ra_of_asc_node": 221.5879,
        "meta_arg_of_pericenter": 87.3887,
        "meta_mean_anomaly": 273.7008,
        "meta_ephemeris_type": 0,
        "meta_classification_type": "U",
        "meta_norad_cat_id": 29601,
        "meta_element_set_no": 999,
        "meta_rev_at_epoch": 13957,
        "meta_bstar": 0,
        "meta_mean_motion_dot": 2.2e-07,
        "meta_mean_motion_ddot": 0,
        "tle_line1": "1 29601U 06052A   25341.96073999  .00000022  00000+0  00000+0 0  9990",
        "tle_line2": "2 29601  54.9714 221.5879 0087655  87.3887 273.7008  2.00573134139573"
      },
      "geometry": {
        "type": "Point",
        "coordinates": [
          18.188764627176404,
          29.517262266349384
        ]
      }
    },
    {
      "type": "Feature",
      "properties": {
        "norad_id": 32260,
        "name": "GPS BIIRM-4 (PRN 15)",
        "group": "gnss",
        "lat": -52.33680204885159,
        "lon": 17.47864512040514,
        "alt_km": 20604.72822631886,
        "timestamp": "2025-12-08T15:42:50.032496+00:00",
        "meta_object_name": "GPS BIIRM-4 (PRN 15)",
        "meta_object_id": "2007-047A",
        "meta_epoch": "2025-12-07T18:25:34.370688",
        "meta_mean_motion": 2.00564615,
        "meta_eccentricity": 0.01643014,
        "meta_inclination": 53.9519,
        "meta_ra_of_asc_node": 87.9639,
        "meta_arg_of_pericenter": 85.1876,
        "meta_mean_anomaly": 276.6737,
        "meta_ephemeris_type": 0,
        "meta_classification_type": "U",
        "meta_norad_cat_id": 32260,
        "meta_element_set_no": 999,
        "meta_rev_at_epoch": 13297,
        "meta_bstar": 0,
        "meta_mean_motion_dot": -1.8e-07,
        "meta_mean_motion_ddot": 0,
        "tle_line1": "1 32260U 07047A   25341.76775892 -.00000018  00000+0  00000+0 0  9995",
        "tle_line2": "2 32260  53.9519  87.9639 0164301  85.1876 276.6737  2.00564615132978"
      },
      "geometry": {
        "type": "Point",
        "coordinates": [
          17.47864512040514,
          -52.33680204885159
        ]
      }
    },
    {
      "type": "Feature",
      "properties": {
        "norad_id": 32275,
        "name": "COSMOS 2433 (720)",
        "group": "gnss",
        "lat": -16.207336428781527,
        "lon": 149.88148806403618,
        "alt_km": 19124.55991549609,
        "timestamp": "2025-12-08T15:42:50.032508+00:00",
        "meta_object_name": "COSMOS 2433 (720)",
        "meta_object_id": "2007-052A",
        "meta_epoch": "2025-12-07T22:15:39.436992",
        "meta_mean_motion": 2.13103936,
        "meta_eccentricity": 0.00054366,
        "meta_inclination": 65.6859,
        "meta_ra_of_asc_node": 322.3673,
        "meta_arg_of_pericenter": 253.7081,
        "meta_mean_anomaly": 106.2283,
        "meta_ephemeris_type": 0,
        "meta_classification_type": "U",
        "meta_norad_cat_id": 32275,
        "meta_element_set_no": 999,
        "meta_rev_at_epoch": 14098,
        "meta_bstar": 0,
        "meta_mean_motion_dot": -4.9e-07,
        "meta_mean_motion_ddot": 0,
        "tle_line1": "1 32275U 07052A   25341.92753978 -.00000049  00000+0  00000+0 0  9990",
        "tle_line2": "2 32275  65.6859 322.3673 0005436 253.7081 106.2283  2.13103936140982"
      },
      "geometry": {
        "type": "Point",
        "coordinates": [
          149.88148806403618,
          -16.207336428781527
        ]
      }
    },
    {
      "type": "Feature",
      "properties": {
        "norad_id": 32276,
        "name": "COSMOS 2432 (719)",
        "group": "gnss",
        "lat": 33.83657727812318,
        "lon": 124.82909080520488,
        "alt_km": 19154.328504625457,
        "timestamp": "2025-12-08T15:42:50.032521+00:00",
        "meta_object_name": "COSMOS 2432 (719)",
        "meta_object_id": "2007-052B",
        "meta_epoch": "2025-12-08T02:14:19.806720",
        "meta_mean_motion": 2.13103088,
        "meta_eccentricity": 0.00112877,
        "meta_inclination": 65.7017,
        "meta_ra_of_asc_node": 322.4859,
        "meta_arg_of_pericenter": 312.3782,
        "meta_mean_anomaly": 119.1922,
        "meta_ephemeris_type": 0,
        "meta_classification_type": "U",
        "meta_norad_cat_id": 32276,
        "meta_element_set_no": 999,
        "meta_rev_at_epoch": 14101,
        "meta_bstar": 0,
        "meta_mean_motion_dot": -4.9e-07,
        "meta_mean_motion_ddot": 0,
        "tle_line1": "1 32276U 07052B   25342.09328480 -.00000049  00000+0  00000+0 0  9996",
        "tle_line2": "2 32276  65.7017 322.4859 0011287 312.3782 119.1922  2.13103088141014"
      },
      "geometry": {
        "type": "Point",
        "coordinates": [
          124.82909080520488,
          33.83657727812318
        ]
      }
    },
    {
      "type": "Feature",
      "properties": {
        "norad_id": 32384,
        "name": "GPS BIIRM-5 (PRN 29)",
        "group": "gnss",
        "lat": 39.67141545034546,
        "lon": -43.01094674292348,
        "alt_km": 20207.40311300058,
        "timestamp": "2025-12-08T15:42:50.032532+00:00",
        "meta_object_name": "GPS BIIRM-5 (PRN 29)",
        "meta_object_id": "2007-062A",
        "meta_epoch": "2025-12-08T07:46:47.506944",
        "meta_mean_motion": 2.00576984,
        "meta_eccentricity": 0.00322211,
        "meta_inclination": 55.1861,
        "meta_ra_of_asc_node": 281.823,
        "meta_arg_of_pericenter": 162.5952,
        "meta_mean_anomaly": 10.0568,
        "meta_ephemeris_type": 0,
        "meta_classification_type": "U",
        "meta_norad_cat_id": 32384,
        "meta_element_set_no": 999,
        "meta_rev_at_epoch": 13168,
        "meta_bstar": 0,
        "meta_mean_motion_dot": -4.5e-07,
        "meta_mean_motion_ddot": 0,
        "tle_line1": "1 32384U 07062A   25342.32416096 -.00000045  00000+0  00000+0 0  9990",
        "tle_line2": "2 32384  55.1861 281.8230 0032221 162.5952  10.0568  2.00576984131682"
      },
      "geometry": {
        "type": "Point",
        "coordinates": [
          -43.01094674292348,
          39.67141545034546
        ]
      }
    }
  ]
}